NORAD_CAT_ID,OBJECT_NAME,OBJECT_TYPE,EPOCH,MEAN_MOTION,ECCENTRICITY,INCLINATION,RA_OF_ASC_NODE,ARG_OF_PERICENTER,MEAN_ANOMALY,BSTAR,MEAN_MOTION_DOT,MEAN_MOTION_DDOT,TLE_LINE0,TLE_LINE1,TLE_LINE2,SEMIMAJOR_AXIS,PERIOD,APOGEE,PERIGEE,DECAYED
53848.0,STARLINK-4780,PAYLOAD,2023-03-04 08:54:03,15.08852675,0.0001578,53.2147,197.8644,90.6236,269.4936,0.00067021,0.00010398,0.0,0 STARLINK-4780,1 53848U 22114AG  23063.37087919  .00010398  00000-0  67021-3 0  9996,2 53848  53.2147 197.8644 0001578  90.6236 269.4936 15.08852675 26170,6917.842,95.437,540.798,538.615,0.0
53848.0,STARLINK-4780,PAYLOAD,2023-03-04 20:01:45,15.08866246,0.0001013,53.2155,195.783,105.5261,254.5843,0.0014022,0.00022114,0.0,0 STARLINK-4780,1 53848U 22114AG  23063.83455369  .00022114  00000-0  14022-2 0  9996,2 53848  53.2155 195.7830 0001013 105.5261 254.5843 15.08866246 26789,6917.8,95.436,540.366,538.964,0.0
53848.0,STARLINK-4780,PAYLOAD,2023-03-05 02:23:18,15.08836816,9.59e-05,53.2153,194.5945,107.4685,252.6412,0.00048791,7.485e-05,0.0,0 STARLINK-4780,1 53848U 22114AG  23064.09952168  .00007485  00000-0  48791-3 0  9999,2 53848  53.2153 194.5945 0000959 107.4685 252.6412 15.08836816 26286,6917.89,95.438,540.419,539.092,0.0
53848.0,STARLINK-4780,PAYLOAD,2023-03-05 08:44:51,15.08841165,0.0001146,53.2154,193.4048,106.3965,253.7154,0.0012753,0.00020067,0.0,0 STARLINK-4780,1 53848U 22114AG  23064.36448368  .00020067  00000-0  12753-2 0  9990,2 53848  53.2154 193.4048 0001146 106.3965 253.7154 15.08841165 26869,6917.877,95.437,540.535,538.949,0.0
53848.0,STARLINK-4780,PAYLOAD,2023-03-06 11:46:24,15.08855959,8.68e-05,53.2161,188.349,127.5527,232.5544,0.0010132,0.00015881,0.0,0 STARLINK-4780,1 53848U 22114AG  23065.49056334  .00015881  00000-0  10132-2 0  9990,2 53848  53.2161 188.3490 0000868 127.5527 232.5544 15.08855959 26493,6917.832,95.437,540.297,539.096,0.0
53848.0,STARLINK-4780,PAYLOAD,2023-03-07 06:51:02,15.08867115,0.000301,53.218,184.7849,96.3364,263.7971,0.00095308,0.00014924,0.0,0 STARLINK-4780,1 53848U 22114AG  23066.28544188  .00014924  00000-0  95308-3 0  9993,2 53848  53.2180 184.7849 0003010  96.3364 263.7971 15.08867115 26617,6917.798,95.436,541.745,537.58,0.0
53848.0,STARLINK-4780,PAYLOAD,2023-03-07 08:26:25,15.08859523,0.0003141,53.2197,184.4871,105.1867,254.9473,0.00036868,5.587e-05,0.0,0 STARLINK-4780,1 53848U 22114AG  23066.35168102  .00005587  00000-0  36868-3 0  9990,2 53848  53.2197 184.4871 0003141 105.1867 254.9473 15.08859523 26623,6917.821,95.436,541.859,537.513,0.0
53848.0,STARLINK-4780,PAYLOAD,2023-03-08 00:20:16,15.08841985,0.0001653,53.2186,181.513,105.8349,254.2825,0.0005242,8.065e-05,0.0,0 STARLINK-4780,1 53848U 22114AG  23067.01408258  .00008065  00000-0  52420-3 0  9999,2 53848  53.2186 181.5130 0001653 105.8349 254.2825 15.08841985 26723,6917.874,95.437,540.883,538.596,0.0
53848.0,STARLINK-4780,PAYLOAD,2023-03-08 08:17:12,15.08822576,0.0001493,53.2197,180.0269,121.8073,238.3065,-0.00033528,-5.617e-05,0.0,0 STARLINK-4780,1 53848U 22114AG  23067.34528635 -.00005617  00000-0 -33528-3 0  9997,2 53848  53.2197 180.0269 0001493 121.8073 238.3065 15.08822576 26775,6917.934,95.439,540.831,538.766,0.0
53848.0,STARLINK-4780,PAYLOAD,2023-03-09 00:11:04,15.088509,7.64e-05,53.217,177.0525,115.5347,244.5724,0.0010607,0.00016638,0.0,0 STARLINK-4780,1 53848U 22114AG  23068.00768808  .00016638  00000-0  10607-2 0  9994,2 53848  53.2170 177.0525 0000764 115.5347 244.5724 15.08850900 26875,6917.847,95.437,540.241,539.184,0.0
53848.0,STARLINK-4780,PAYLOAD,2023-03-09 16:04:54,15.08878168,0.0001594,53.217,174.0783,126.9333,233.1806,0.0014986,0.00023668,0.0,0 STARLINK-4780,1 53848U 22114AG  23068.67007931  .00023668  00000-0  14986-2 0  9995,2 53848  53.2170 174.0783 0001594 126.9333 233.1806 15.08878168 27514,6917.764,95.435,540.731,538.526,0.0
53848.0,STARLINK-4780,PAYLOAD,2023-03-10 00:01:50,15.08857301,0.0001484,53.2172,172.5916,87.3927,272.7235,7.8323e-05,9.59e-06,0.0,0 STARLINK-4780,1 53848U 22114AG  23069.00128157  .00000959  00000-0  78323-4 0  9992,2 53848  53.2172 172.5916 0001484  87.3927 272.7235 15.08857301 27021,6917.828,95.436,540.719,538.666,0.0
53848.0,STARLINK-4780,PAYLOAD,2023-03-10 11:09:32,15.08853175,0.0002587,53.2175,170.5103,82.1434,277.9852,0.00018498,2.658e-05,0.0,0 STARLINK-4780,1 53848U 22114AG  23069.46496310  .00002658  00000-0  18498-3 0  9995,2 53848  53.2175 170.5103 0002587  82.1434 277.9852 15.08853175 27095,6917.84,95.437,541.495,537.915,0.0
53848.0,STARLINK-4780,PAYLOAD,2023-03-10 15:55:41,15.08869287,0.000159,53.2171,169.6189,88.9513,271.1662,0.00067031,0.00010405,0.0,0 STARLINK-4780,1 53848U 22114AG  23069.66367503  .00010405  00000-0  67031-3 0  9994,2 53848  53.2171 169.6189 0001590  88.9513 271.1662 15.08869287 27129,6917.791,95.436,540.756,538.556,0.0
53848.0,STARLINK-4780,PAYLOAD,2023-03-11 06:14:10,15.08829683,0.0002512,53.215,166.9428,93.7789,266.3491,-0.0001824,-3.189e-05,0.0,0 STARLINK-4780,1 53848U 22114AG  23070.25984901 -.00003189  00000-0 -18240-3 0  9999,2 53848  53.2150 166.9428 0002512  93.7789 266.3491 15.08829683 27218,6917.912,95.438,541.515,538.039,0.0
53848.0,STARLINK-4780,PAYLOAD,2023-03-11 12:35:43,15.08824919,0.0001781,53.2163,165.7546,102.8016,257.3175,-0.0002552,-4.346e-05,0.0,0 STARLINK-4780,1 53848U 22114AG  23070.52481294 -.00004346  00000-0 -25520-3 0  9991,2 53848  53.2163 165.7546 0001781 102.8016 257.3175 15.08824919 27791,6917.926,95.439,541.024,538.559,0.0
53848.0,STARLINK-4780,PAYLOAD,2023-03-12 06:04:58,15.08832645,0.0001872,53.2159,162.4827,97.3153,262.8052,0.00029719,4.444e-05,0.0,0 STARLINK-4780,1 53848U 22114AG  23071.25345963  .00004444  00000-0  29719-3 0  9995,2 53848  53.2159 162.4827 0001872  97.3153 262.8052 15.08832645 27906,6917.903,95.438,541.063,538.473,0.0
53848.0,STARLINK-4780,PAYLOAD,2023-03-12 12:26:31,15.08840614,0.0001989,53.2165,161.2937,98.1869,261.9348,0.00080005,0.00012468,0.0,0 STARLINK-4780,1 53848U 22114AG  23071.51842171  .00012468  00000-0  80005-3 0  9997,2 53848  53.2165 161.2937 0001989  98.1869 261.9348 15.08840614 27402,6917.879,95.438,541.119,538.368,0.0
53848.0,STARLINK-4780,PAYLOAD,2023-03-13 12:17:18,15.08855773,0.0001791,53.2166,156.835,93.6489,266.4708,0.00049939,7.672e-05,0.0,0 STARLINK-4780,1 53848U 22114AG  23072.51201642  .00007672  00000-0  49939-3 0  9992,2 53848  53.2166 156.8350 0001791  93.6489 266.4708 15.08855773 28099,6917.832,95.437,540.936,538.458,0.0
53848.0,STARLINK-4780,PAYLOAD,2023-03-14 05:46:32,15.08844021,0.0001729,53.2172,153.56,103.57,256.5485,0.00013175,1.81e-05,0.0,0 STARLINK-4780,1 53848U 22114AG  23073.24065654  .00001810  00000-0  13175-3 0  9995,2 53848  53.2172 153.5600 0001729 103.5700 256.5485 15.08844021 27664,6917.868,95.437,540.929,538.537,0.0
53848.0,STARLINK-4780,PAYLOAD,2023-03-14 12:08:05,15.08845214,0.0001355,53.2163,152.3711,81.5818,278.5327,0.00016181,2.289e-05,0.0,0 STARLINK-4780,1 53848U 22114AG  23073.50561723  .00002289  00000-0  16181-3 0  9993,2 53848  53.2163 152.3711 0001355  81.5818 278.5327 15.08845214 28243,6917.864,95.437,540.667,538.792,0.0
53848.0,STARLINK-4780,PAYLOAD,2023-03-14 21:40:23,15.08852397,0.0001419,53.2167,150.5874,80.4266,279.6886,0.00037624,5.707e-05,0.0,0 STARLINK-4780,1 53848U 22114AG  23073.90305415  .00005707  00000-0  37624-3 0  9994,2 53848  53.2167 150.5874 0001419  80.4266 279.6886 15.08852397 28302,6917.842,95.437,540.689,538.726,0.0
53848.0,STARLINK-4780,PAYLOAD,2023-03-15 10:23:28,15.08858837,0.0001621,53.2163,148.2087,75.8556,284.2617,0.00069236,0.00010754,0.0,0 STARLINK-4780,1 53848U 22114AG  23074.43296956  .00010754  00000-0  69236-3 0  9994,2 53848  53.2163 148.2087 0001621  75.8556 284.2617 15.08858837 27840,6917.823,95.436,540.809,538.566,0.0
53848.0,STARLINK-4780,PAYLOAD,2023-03-15 21:31:10,15.08858096,0.0001643,53.2167,146.1252,80.1003,280.0174,0.00031501,4.731e-05,0.0,0 STARLINK-4780,1 53848U 22114AG  23074.89664522  .00004731  00000-0  31501-3 0  9994,2 53848  53.2167 146.1252 0001643  80.1003 280.0174 15.08858096 28452,6917.825,95.436,540.827,538.553,0.0
53848.0,STARLINK-4780,PAYLOAD,2023-03-16 05:28:06,15.08839012,0.000183,53.2168,144.6403,107.4331,252.6861,-0.0003212,-5.396e-05,0.0,0 STARLINK-4780,1 53848U 22114AG  23075.22784785 -.00005396  00000-0 -32120-3 0  9994,2 53848  53.2168 144.6403 0001830 107.4331 252.6861 15.08839012 27969,6917.883,95.438,541.014,538.482,0.0
53848.0,STARLINK-4780,PAYLOAD,2023-03-16 13:25:01,15.0884175,0.0001364,53.2157,143.1526,94.2263,265.8885,0.00025613,3.791e-05,0.0,0 STARLINK-4780,1 53848U 22114AG  23075.55904723  .00003791  00000-0  25613-3 0  9990,2 53848  53.2157 143.1526 0001364  94.2263 265.8885 15.08841750 28556,6917.875,95.437,540.684,538.796,0.0
53848.0,STARLINK-4780,PAYLOAD,2023-03-16 21:21:57,15.08821933,0.0001063,53.2163,141.6677,103.1544,256.9566,-0.00015024,-2.677e-05,0.0,0 STARLINK-4780,1 53848U 22114AG  23075.89025364 -.00002677  00000-0 -15024-3 0  9991,2 53848  53.2163 141.6677 0001063 103.1544 256.9566 15.08821933 28065,6917.936,95.439,540.536,539.065,0.0
53848.0,STARLINK-4780,PAYLOAD,2023-03-17 10:05:04,15.0880906,0.0001608,53.217,139.2888,96.7712,263.3463,-0.00014148,-2.537e-05,0.0,0 STARLINK-4780,1 53848U 22114AG  23076.42018927 -.00002537  00000-0 -14148-3 0  9999,2 53848  53.2170 139.2888 0001608  96.7712 263.3463 15.08809060 28143,6917.975,95.44,540.952,538.728,0.0
53848.0,STARLINK-4780,PAYLOAD,2023-03-17 21:12:46,15.08829091,0.0001818,53.2186,137.2067,93.6884,266.4316,0.00031113,4.666e-05,0.0,0 STARLINK-4780,1 53848U 22114AG  23076.88387160  .00004666  00000-0  31113-3 0  9991,2 53848  53.2186 137.2067 0001818  93.6884 266.4316 15.08829091 28750,6917.914,95.438,541.036,538.521,0.0
53848.0,STARLINK-4780,PAYLOAD,2023-03-18 03:34:18,15.08842718,0.0001336,53.2159,136.0164,103.4993,256.6148,0.00088325,0.00013798,0.0,0 STARLINK-4780,1 53848U 22114AG  23077.14882991  .00013798  00000-0  88325-3 0  9996,2 53848  53.2159 136.0164 0001336 103.4993 256.6148 15.08842718 28251,6917.872,95.437,540.661,538.813,0.0
